{
  "type": "FeatureCollection",
  "features": [
    {
      "type": "Feature",
      "properties": {
        "norad_id": 29790,
        "name": "FENGYUN 1C DEB",
        "group": "fengyun-1c-debris",
        "lat": 78.70821324210158,
        "lon": -74.64795131099818,
        "alt_km": 783.6289330980226,
        "timestamp": "2025-12-11T05:00:26.580010+00:00",
        "meta_object_name": "FENGYUN 1C DEB",
        "meta_object_id": "1999-025CG",
        "meta_epoch": "2025-12-10T16:52:44.975712",
        "meta_mean_motion": 14.32263794,
        "meta_eccentricity": 0.00764075,
        "meta_inclination": 99.1472,
        "meta_ra_of_asc_node": 338.6177,
        "meta_arg_of_pericenter": 182.4392,
        "meta_mean_anomaly": 177.6428,
        "meta_ephemeris_type": 0,
        "meta_classification_type": "U",
        "meta_norad_cat_id": 29790,
        "meta_element_set_no": 999,
        "meta_rev_at_epoch": 98496,
        "meta_bstar": 0.00042066389,
        "meta_mean_motion_dot": 1.123e-05,
        "meta_mean_motion_ddot": 0,
        "tle_line1": "1 29790U 99025CG  25344.70329833  .00001123  00000+0  42066-3 0  9992",
        "tle_line2": "2 29790  99.1472 338.6177 0076407 182.4392 177.6428 14.32263794984961"
      },
      "geometry": {
        "type": "Point",
        "coordinates": [
          -74.64795131099818,
          78.70821324210158
        ]
      }
    },
    {
      "type": "Feature",
      "properties": {
        "norad_id": 29791,
        "name": "FENGYUN 1C DEB",
        "group": "fengyun-1c-debris",
        "lat": -50.51381417551788,
        "lon": 154.48371693215935,
        "alt_km": 734.224610687791,
        "timestamp": "2025-12-11T05:00:26.580020+00:00",
        "meta_object_name": "FENGYUN 1C DEB",
        "meta_object_id": "1999-025CH",
        "meta_epoch": "2025-12-10T18:52:30.637344",
        "meta_mean_motion": 14.58201932,
        "meta_eccentricity": 0.00415815,
        "meta_inclination": 99.0371,
        "meta_ra_of_asc_node": 345.1627,
        "meta_arg_of_pericenter": 67.8303,
        "meta_mean_anomaly": 108.4141,
        "meta_ephemeris_type": 0,
        "meta_classification_type": "U",
        "meta_norad_cat_id": 29791,
        "meta_element_set_no": 999,
        "meta_rev_at_epoch": 98817,
        "meta_bstar": 0.0025130171,
        "meta_mean_motion_dot": 0.00011698,
        "meta_mean_motion_ddot": 0,
        "tle_line1": "1 29791U 99025CH  25344.78646571  .00011698  00000+0  25130-2 0  9992",
        "tle_line2": "2 29791  99.0371 345.1627 0041581  67.8303 108.4141 14.58201932988170"
      },
      "geometry": {
        "type": "Point",
        "coordinates": [
          154.48371693215935,
          -50.51381417551788
        ]
      }
    },
    {
      "type": "Feature",
      "properties": {
        "norad_id": 29792,
        "name": "FENGYUN 1C DEB",
        "group": "fengyun-1c-debris",
        "lat": 49.93546126333101,
        "lon": -133.63919155622975,
        "alt_km": 835.9330278364196,
        "timestamp": "2025-12-11T05:00:26.580030+00:00",
        "meta_object_name": "FENGYUN 1C DEB",
        "meta_object_id": "1999-025CJ",
        "meta_epoch": "2025-12-10T01:15:10.925856",
        "meta_mean_motion": 14.15133483,
        "meta_eccentricity": 0.00481699,
        "meta_inclination": 98.7571,
        "meta_ra_of_asc_node": 34.6651,
        "meta_arg_of_pericenter": 44.3456,
        "meta_mean_anomaly": 316.156,
        "meta_ephemeris_type": 0,
        "meta_classification_type": "U",
        "meta_norad_cat_id": 29792,
        "meta_element_set_no": 999,
        "meta_rev_at_epoch": 96901,
        "meta_bstar": 0.001629781,
        "meta_mean_motion_dot": 3.156e-05,
        "meta_mean_motion_ddot": 0,
        "tle_line1": "1 29792U 99025CJ  25344.05220979  .00003156  00000+0  16298-2 0  9998",
        "tle_line2": "2 29792  98.7571  34.6651 0048169  44.3456 316.1560 14.15133483969017"
      },
      "geometry": {
        "type": "Point",
        "coordinates": [
          -133.63919155622975,
          49.93546126333101
        ]
      }
    },
    {
      "type": "Feature",
      "properties": {
        "norad_id": 29793,
        "name": "FENGYUN 1C DEB",
        "group": "fengyun-1c-debris",
        "lat": -4.94383388106004,
        "lon": -16.615070885017353,
        "alt_km": 990.1125930264616,
        "timestamp": "2025-12-11T05:00:26.580039+00:00",
        "meta_object_name": "FENGYUN 1C DEB",
        "meta_object_id": "1999-025CK",
        "meta_epoch": "2025-12-10T11:07:08.789952",
        "meta_mean_motion": 14.01066679,
        "meta_eccentricity": 0.014379,
        "meta_inclination": 98.3549,
        "meta_ra_of_asc_node": 163.4309,
        "meta_arg_of_pericenter": 344.6929,
        "meta_mean_anomaly": 43.5175,
        "meta_ephemeris_type": 0,
        "meta_classification_type": "U",
        "meta_norad_cat_id": 29793,
        "meta_element_set_no": 999,
        "meta_rev_at_epoch": 96117,
        "meta_bstar": 0.0013641351,
        "meta_mean_motion_dot": 2.199e-05,
        "meta_mean_motion_ddot": 0,
        "tle_line1": "1 29793U 99025CK  25344.46329618  .00002199  00000+0  13641-2 0  9999",
        "tle_line2": "2 29793  98.3549 163.4309 0143790 344.6929  43.5175 14.01066679961176"
      },
      "geometry": {
        "type": "Point",
        "coordinates": [
          -16.615070885017353,
          -4.94383388106004
        ]
      }
    },
    {
      "type": "Feature",
      "properties": {
        "norad_id": 29794,
        "name": "FENGYUN 1C DEB",
        "group": "fengyun-1c-debris",
        "lat": 81.43882947915853,
        "lon": 37.273765940457395,
        "alt_km": 777.5604675002851,
        "timestamp": "2025-12-11T05:00:26.580049+00:00",
        "meta_object_name": "FENGYUN 1C DEB",
        "meta_object_id": "1999-025CL",
        "meta_epoch": "2025-12-10T09:58:41.963808",
        "meta_mean_motion": 14.08990041,
        "meta_eccentricity": 0.01572035,
        "meta_inclination": 98.1997,
        "meta_ra_of_asc_node": 143.2589,
        "meta_arg_of_pericenter": 47.175,
        "meta_mean_anomaly": 344.4647,
        "meta_ephemeris_type": 0,
        "meta_classification_type": "U",
        "meta_norad_cat_id": 29794,
        "meta_element_set_no": 999,
        "meta_rev_at_epoch": 96815,
        "meta_bstar": 0.00071583473,
        "meta_mean_motion_dot": 1.352e-05,
        "meta_mean_motion_ddot": 0,
        "tle_line1": "1 29794U 99025CL  25344.41576347  .00001352  00000+0  71583-3 0  9998",
        "tle_line2": "2 29794  98.1997 143.2589 0157203  47.1750 344.4647 14.08990041968157"
      },
      "geometry": {
        "type": "Point",
        "coordinates": [
          37.273765940457395,
          81.43882947915853
        ]
      }
    },
    {
      "type": "Feature",
      "properties": {
        "norad_id": 29795,
        "name": "FENGYUN 1C DEB",
        "group": "fengyun-1c-debris",
        "lat": -80.84349166342531,
        "lon": -169.70208783576578,
        "alt_km": 845.5635213295527,
        "timestamp": "2025-12-11T05:00:26.580060+00:00",
        "meta_object_name": "FENGYUN 1C DEB",
        "meta_object_id": "1999-025CM",
        "meta_epoch": "2025-12-10T07:09:23.089824",
        "meta_mean_motion": 13.92907551,
        "meta_eccentricity": 0.0111028,
        "meta_inclination": 98.8702,
        "meta_ra_of_asc_node": 113.7709,
        "meta_arg_of_pericenter": 282.9558,
        "meta_mean_anomaly": 106.5263,
        "meta_ephemeris_type": 0,
        "meta_classification_type": "U",
        "meta_norad_cat_id": 29795,
        "meta_element_set_no": 999,
        "meta_rev_at_epoch": 96031,
        "meta_bstar": 0.00034032,
        "meta_mean_motion_dot": 4.21e-06,
        "meta_mean_motion_ddot": 0,
        "tle_line1": "1 29795U 99025CM  25344.29818391  .00000421  00000+0  34032-3 0  9997",
        "tle_line2": "2 29795  98.8702 113.7709 0111028 282.9558 106.5263 13.92907551960312"
      },
      "geometry": {
        "type": "Point",
        "coordinates": [
          -169.70208783576578,
          -80.84349166342531
        ]
      }
    },
    {
      "type": "Feature",
      "properties": {
        "norad_id": 29796,
        "name": "FENGYUN 1C DEB",
        "group": "fengyun-1c-debris",
        "lat": 30.85738299583732,
        "lon": -137.5518767044465,
        "alt_km": 870.2973077024244,
        "timestamp": "2025-12-11T05:00:26.580070+00:00",
        "meta_object_name": "FENGYUN 1C DEB",
        "meta_object_id": "1999-025CN",
        "meta_epoch": "2025-12-10T22:20:45.432960",
        "meta_mean_motion": 14.12329086,
        "meta_eccentricity": 0.00518175,
        "meta_inclination": 98.8648,
        "meta_ra_of_asc_node": 36.8233,
        "meta_arg_of_pericenter": 273.0661,
        "meta_mean_anomaly": 265.6276,
        "meta_ephemeris_type": 0,
        "meta_classification_type": "U",
        "meta_norad_cat_id": 29796,
        "meta_element_set_no": 999,
        "meta_rev_at_epoch": 97035,
        "meta_bstar": 0.00089356426,
        "meta_mean_motion_dot": 1.622e-05,
        "meta_mean_motion_ddot": 0,
        "tle_line1": "1 29796U 99025CN  25344.93108140  .00001622  00000+0  89356-3 0  9996",
        "tle_line2": "2 29796  98.8648  36.8233 0051817 273.0661 265.6276 14.12329086970354"
      },
      "geometry": {
        "type": "Point",
        "coordinates": [
          -137.5518767044465,
          30.85738299583732
        ]
      }
    }
  ]
}